STARLINK-30077          
1 57460U 23107D   26068.11632967 -.00001259  00000+0 -36265-4 0  9996
2 57460  43.0018 338.9783 0001000 268.7747  91.2990 15.27564952145065
FLOCK 4G-3              
1 62639U 25009AG  26068.80174065  .00011494  00000+0  43389-3 0  9993
2 62639  97.4062 151.4068 0001320 293.2042  66.9058 15.27179310 63727
